STARLINK-3820           
1 52364U 22045AK  26068.63832125 -.00000695  00000+0 -25602-4 0  9995
2 52364  53.2173 189.2632 0001230  77.3930 282.7199 15.08834235215914
YAM-8                   
1 63254U 25052AW  26068.73092778  .00007810  00000+0  47267-3 0  9993
2 63254  97.7023 329.5345 0002369 152.6796 207.4558 15.10898938 54245
